[{"OBJECT_NAME":"STARLINK-34505","OBJECT_ID":"2025-133U","EPOCH":"2026-03-09T12:50:23.599968","MEAN_MOTION":15.30246488,"ECCENTRICITY":0.00016173,"INCLINATION":53.1584,"RA_OF_ASC_NODE":117.5822,"ARG_OF_PERICENTER":99.3261,"MEAN_ANOMALY":260.7923,"EPHEMERIS_TYPE":0,"CLASSIFICATION_TYPE":"U","NORAD_CAT_ID":64490,"ELEMENT_SET_NO":999,"REV_AT_EPOCH":4114,"BSTAR":0.0013245619,"MEAN_MOTION_DOT":0.00039134,"MEAN_MOTION_DDOT":0},{"OBJECT_NAME":"THORAD AGENA D DEB","OBJECT_ID":"1969-082CP","EPOCH":"2026-03-09T22:51:31.947840","MEAN_MOTION":15.31252047,"ECCENTRICITY":0.00108961,"INCLINATION":69.8927,"RA_OF_ASC_NODE":265.8646,"ARG_OF_PERICENTER":335.0972,"MEAN_ANOMALY":24.9676,"EPHEMERIS_TYPE":0,"CLASSIFICATION_TYPE":"U","NORAD_CAT_ID":4133,"ELEMENT_SET_NO":999,"REV_AT_EPOCH":97550,"BSTAR":0.0018489552,"MEAN_MOTION_DOT":0.00056347,"MEAN_MOTION_DDOT":0}]
